{"fetched_at":"2026-03-29T02:12:04Z","count":15717,"tles":[{"name":"2024-174A","line1":"1 61238U 24174A   26084.74497991  .00003921  00000+0  18987-3 0  9998","line2":"2 61238  97.4519  93.6615 0002144 105.1097 255.0375 15.19137662 83011","category":"Other"}]}